H1 CPF 01  gfz 2022 06 17 12  6681 terrasarx 
H2 0702601  6201 31698    2022 06 17 12 59 42 2022 06 22 00 00 42   120 1 1  0 0 0
H9
10 0 59748  10062.000000  0    3430229.093   4615937.313   3783755.279
10 0 59748  10182.000000  0    3851700.547   4855471.439   2999642.790
10 0 59748  10302.000000  0    4209224.079   5003299.905   2162714.991
10 0 59748  10422.000000  0    4494929.790   5058023.006   1287705.970
10 0 59748  10542.000000  0    4702206.964   5020010.632    390026.221
10 0 59748  10662.000000  0    4825854.946   4891374.914   -514518.453
10 0 59748  10782.000000  0    4862203.235   4675904.096  -1410014.441
10 0 59748  10902.000000  0    4809202.158   4378963.885  -2280727.538
10 0 59748  11022.000000  0    4666481.038   4007368.640  -3111386.077
10 0 59748  11142.000000  0    4435371.859   3569224.853  -3887453.284
10 0 59748  11262.000000  0    4118897.701   3073751.784  -4595382.487
10 0 59748  11382.000000  0    3721728.750   2531083.846  -5222850.327
10 0 59748  11502.000000  0    3250107.198   1952060.024  -5758964.996
10 0 59748  11622.000000  0    2711742.019   1348005.282  -6194446.162
10 0 59748  11742.000000  0    2115677.011    730508.826  -6521774.078
10 0 59748  11862.000000  0    1472136.163    111204.202  -6735307.147
10 0 59748  11982.000000  0     792349.407   -498445.568  -6831370.414
10 0 59748  12102.000000  0      88357.803  -1087356.159  -6808312.152
10 0 59748  12222.000000  0    -627194.996  -1645017.905  -6666527.338
10 0 59748  12342.000000  0   -1341283.692  -2161678.049  -6408452.432
10 0 59748  12462.000000  0   -2040733.250  -2628508.698  -6038528.537
10 0 59748  12582.000000  0   -2712456.502  -3037756.199  -5563132.548
10 0 59748  12702.000000  0   -3343695.606  -3382871.011  -4990479.122
10 0 59748  12822.000000  0   -3922265.114  -3658616.643  -4330490.474
10 0 59748  12942.000000  0   -4436789.647  -3861153.280  -3594634.545
10 0 59748  13062.000000  0   -4876932.288  -3988095.252  -2795734.685
10 0 59748  13182.000000  0   -5233608.748  -4038540.624  -1947751.553
10 0 59748  13302.000000  0   -5499181.311  -4013070.958  -1065540.691
10 0 59748  13422.000000  0   -5667627.743  -3913721.187   -164590.477
10 0 59748  13542.000000  0   -5734680.663  -3743919.848    739254.857
10 0 59748  13662.000000  0   -5697933.116  -3508401.006   1630082.468
10 0 59748  13782.000000  0   -5556905.520  -3213088.127   2492201.216
10 0 59748  13902.000000  0   -5313073.208  -2864954.009   3310426.368
10 0 59748  14022.000000  0   -4969854.852  -2471861.605   4070354.207
10 0 59748  14142.000000  0   -4532560.949  -2042387.773   4758620.916
10 0 59748  14262.000000  0   -4008304.461  -1585636.000   5363137.864
10 0 59748  14382.000000  0   -3405878.442  -1111043.921   5873301.520
10 0 59748  14502.000000  0   -2735601.991   -628188.060   6280176.923
10 0 59748  14622.000000  0   -2009136.012   -146589.477   6576649.461
10 0 59748  14742.000000  0   -1239274.500    324473.525   6757541.656
10 0 59748  14862.000000  0    -439717.189    776142.124   6819697.574
10 0 59748  14982.000000  0     375174.362   1200142.536   6762034.350
10 0 59748  15102.000000  0    1190633.902   1588937.228   6585559.984
10 0 59748  15222.000000  0    1991757.345   1935859.239   6293356.432
10 0 59748  15342.000000  0    2763774.231   2235226.506   5890529.016
10 0 59748  15462.000000  0    3492321.165   2482435.994   5384123.513
10 0 59748  15582.000000  0    4163712.465   2674035.647   4783008.618
10 0 59748  15702.000000  0    4765200.985   2807773.243   4097726.381
10 0 59748  15822.000000  0    5285227.715   2882621.124   3340313.388
10 0 59748  15942.000000  0    5713653.905   2898774.286   2524088.677
10 0 59748  16062.000000  0    6041964.484   2857622.649   1663418.631
10 0 59748  16182.000000  0    6263445.183   2761699.686    773460.285
10 0 59748  16302.000000  0    6373324.321   2614605.883   -130113.421
10 0 59748  16422.000000  0    6368874.848   2420909.190  -1031399.176
10 0 59748  16542.000000  0    6249474.020   2186025.355  -1914550.961
10 0 59748  16662.000000  0    6016624.016   1916083.945  -2764065.145
10 0 59748  16782.000000  0    5673928.729   1617779.885  -3565059.378
10 0 59748  16902.000000  0    5227028.768   1298215.448  -4303536.016
10 0 59748  17022.000000  0    4683496.007    964737.071  -4966625.640
10 0 59748  17142.000000  0    4052693.078    624772.469  -5542804.965
10 0 59748  17262.000000  0    3345602.440    285670.741  -6022088.444
10 0 59748  17382.000000  0    2574627.295    -45450.964  -6396191.253
10 0 59748  17502.000000  0    1753369.418   -361851.661  -6658660.612
10 0 59748  17622.000000  0     896389.797   -657298.970  -6804976.678
10 0 59748  17742.000000  0      18952.558   -926187.868  -6832622.977
10 0 59748  17862.000000  0    -863241.823  -1163643.197  -6741123.383
10 0 59748  17982.000000  0   -1734330.176  -1365605.574  -6532049.929
10 0 59748  18102.000000  0   -2578565.906  -1528899.512  -6208998.794
10 0 59748  18222.000000  0   -3380597.065  -1651282.410  -5777534.028
10 0 59748  18342.000000  0   -4125741.659  -1731474.805  -5245103.144
10 0 59748  18462.000000  0   -4800258.276  -1769170.804  -4620920.334
10 0 59748  18582.000000  0   -5391603.704  -1765027.849  -3915817.921
10 0 59748  18702.000000  0   -5888674.205  -1720636.337  -3142068.588
10 0 59748  18822.000000  0   -6282024.816  -1638469.125  -2313178.372
10 0 59748  18942.000000  0   -6564060.353  -1521811.288  -1443654.104
10 0 59748  19062.000000  0   -6729193.598  -1374671.967   -548749.010
10 0 59748  19182.000000  0   -6773965.960  -1201679.742    355809.275
10 0 59748  19302.000000  0   -6697126.313  -1007963.602   1254102.322
10 0 59748  19422.000000  0   -6499665.279   -799023.654   2130309.897
10 0 59748  19542.000000  0   -6184804.225   -580594.308   2968997.645
10 0 59748  19662.000000  0   -5757939.335   -358503.224   3755397.318
10 0 59748  19782.000000  0   -5226541.201   -138529.770   4475673.283
10 0 59748  19902.000000  0   -4600013.539     73732.402   5117168.160
10 0 59748  20022.000000  0   -3889517.098    273006.723   5668623.902
10 0 59748  20142.000000  0   -3107761.870    454455.447   6120376.848
10 0 59748  20262.000000  0   -2268771.039    613788.514   6464522.063
10 0 59748  20382.000000  0   -1387623.577    747357.840   6695046.119
10 0 59748  20502.000000  0    -480178.998    852236.111   6807925.869
10 0 59748  20622.000000  0     437208.664    926277.692   6801193.193
10 0 59748  20742.000000  0    1347984.521    968161.153   6674966.852
10 0 59748  20862.000000  0    2235690.374    977413.169   6431450.673
10 0 59748  20982.000000  0    3084261.270    954412.681   6074897.853
10 0 59748  21102.000000  0    3878317.889    900375.492   5611541.763
10 0 59748  21222.000000  0    4603448.162    817319.840   5049491.883
10 0 59748  21342.000000  0    5246473.805    708012.741   4398599.127
10 0 59748  21462.000000  0    5795699.259    575898.738   3670288.988
10 0 59748  21582.000000  0    6241134.787    425012.958   2877362.697
10 0 59748  21702.000000  0    6574687.170    259879.373   2033771.178
10 0 59748  21822.000000  0    6790316.459     85395.858   1154367.813
10 0 59748  21942.000000  0    6884152.878    -93289.116    254640.449
10 0 59748  22062.000000  0    6854570.657   -270906.665   -649569.179
10 0 59748  22182.000000  0    6702216.027   -442200.995  -1542353.946
10 0 59748  22302.000000  0    6429989.316   -602062.340  -2408029.640
10 0 59748  22422.000000  0    6042981.549   -745656.109  -3231416.985
10 0 59748  22542.000000  0    5548368.608   -868545.104  -3998111.423
10 0 59748  22662.000000  0    4955265.554   -966801.249  -4694735.288
10 0 59748  22782.000000  0    4274546.297  -1037104.139  -5309167.003
10 0 59748  22902.000000  0    3518633.899  -1076825.467  -5830745.110
10 0 59748  23022.000000  0    2701265.164  -1084097.675  -6250443.679
10 0 59748  23142.000000  0    1837236.124  -1057864.058  -6561017.124
10 0 59748  23262.000000  0     942133.346   -997910.498  -6757114.066
10 0 59748  23382.000000  0      32055.476   -904879.769  -6835360.286
10 0 59748  23502.000000  0    -876671.231   -780266.276  -6794410.083
10 0 59748  23622.000000  0   -1767778.670   -626392.634  -6634967.117
10 0 59748  23742.000000  0   -2625342.006   -446367.399  -6359773.216
10 0 59748  23862.000000  0   -3434057.435   -244025.466  -5973565.222
10 0 59748  23982.000000  0   -4179511.197    -23851.381  -5483003.528
10 0 59748  24102.000000  0   -4848437.660    209113.429  -4896567.907
10 0 59748  24222.000000  0   -5428958.907    449377.357  -4224422.697
10 0 59748  24342.000000  0   -5910804.667    691118.874  -3478252.167
10 0 59748  24462.000000  0   -6285505.450    928317.670  -2671065.600
10 0 59748  24582.000000  0   -6546554.162   1154893.571  -1816975.171
10 0 59748  24702.000000  0   -6689531.973   1364850.007   -930950.759
10 0 59748  24822.000000  0   -6712195.697   1552419.201    -28553.765
10 0 59748  24942.000000  0   -6614519.374   1712203.545    874343.366
10 0 59748  25062.000000  0   -6398692.535   1839311.650   1761843.474
10 0 59748  25182.000000  0   -6069074.351   1929484.944   2618313.692
10 0 59748  25302.000000  0   -5632103.558   1979210.912   3428669.882
10 0 59748  25422.000000  0   -5096166.138   1985819.498   4178649.564
10 0 59748  25542.000000  0   -4471425.403   1947561.067   4855066.455
10 0 59748  25662.000000  0   -3769620.118   1863664.313   5446042.397
10 0 59748  25782.000000  0   -3003836.045   1734373.121   5941214.035
10 0 59748  25902.000000  0   -2188254.128   1560961.808   6331911.742
10 0 59748  26022.000000  0   -1337880.621   1345727.432   6611305.607
10 0 59748  26142.000000  0    -468266.948   1091960.049   6774517.530
10 0 59748  26262.000000  0     404775.105    803892.220   6818700.102
10 0 59748  26382.000000  0    1265459.872    486627.973   6743082.986
10 0 59748  26502.000000  0    2098311.851    146052.818   6548985.419
99
